SPACEMOBILE-003         
1 61045U 24163A   26196.93628891  .00001075  00000+0  62950-4 0  9990
2 61045  52.9668 177.2357 0004709 195.9997 164.0849 15.20707343102147
SPACEMOBILE-005         
1 61046U 24163B   26196.39395759  .00002259  00000+0  11604-3 0  9999
2 61046  52.9762 179.6783 0008703 196.2999 163.7716 15.20721288102059
SPACEMOBILE-001         
1 61047U 24163C   26196.39230189  .00000276  00000+0  27082-4 0  9990
2 61047  52.9733 179.3964 0007205 194.1158 165.9636 15.20741724102058
SPACEMOBILE-002         
1 61048U 24163D   26196.37616552  .00003670  00000+0  17898-3 0  9995
2 61048  52.9778 179.5102 0006025 192.7695 167.3147 15.20785739102050
SPACEMOBILE-004         
1 61049U 24163E   26196.62160951  .00012160  00000+0  55841-3 0  9995
2 61049  52.9675 178.1586 0006579 225.4338 134.6120 15.20780797102091
SPACEMOBILE-001 DEB     
1 62369U 24163F   26196.89511938  .00004452  00000+0  13849-3 0  9992
2 62369  52.9934 144.2344 0005711 255.8222 104.2145 15.35394916 90914
SPACEMOBILE-002 DEB     
1 62370U 24163G   26196.93308085  .00011807  00000+0  26504-3 0  9990
2 62370  52.9426 128.1302 0004610 289.1997  70.8508 15.43840177102800
SPACEMOBILE-003 DEB     
1 62371U 24163H   26196.83838942  .00012593  00000+0  30400-3 0  9993
2 62371  52.9701 135.4961 0005465 239.0673 120.9793 15.41581006 96304
SPACEMOBILE-004 DEB     
1 62372U 24163J   26196.85731195  .00008371  00000+0  21094-3 0  9996
2 62372  52.9842 135.0653 0002710 267.5109  92.5584 15.40775021 99378
SPACEMOBILE-005 DEB     
1 62373U 24163K   26196.91770051  .00004953  00000+0  15635-3 0  9994
2 62373  52.9744 149.0299 0005485 232.7512 127.2988 15.34667242102530
SPACEMOBILE-006         
1 67232U 25309A   26196.34249029  .00000702  00000+0  48789-4 0  9994
2 67232  52.9937 202.6601 0010057 215.7672 144.2649 15.18653983 30874
SPACEMOBILE-008         
1 69589U 26139A   26196.21889988 -.00000005  00000+0  16690-4 0  9996
2 69589  52.9948 135.2997 0005068  56.5691 303.5784 15.12801985  4221
SPACEMOBILE-009         
1 69590U 26139B   26196.22086413  .00000043  00000+0  19439-4 0  9996
2 69590  52.9939 135.3065 0005310  52.3964 307.7508 15.12695316  4226
SPACEMOBILE-010         
1 69591U 26139C   26196.22397988  .00000210  00000+0  28987-4 0  9993
2 69591  52.9945 135.3285 0005239  44.4295 315.7116 15.12527718  4232
